{"type": "FeatureCollection", "features": [ {"type": "Feature", "properties": {"norad_id": 31073, "name": "FENGYUN 1C DEB", "group": "fengyun-1c-debris", "lat": 37.54337126508854, "lon": -159.13679474917248, "alt_km": 832.3415255051468, "timestamp": "2025-12-23T18:59:32.247561+00:00", "meta": {"OBJECT_NAME": "FENGYUN 1C DEB", "OBJECT_ID": "1999-025BFT", "EPOCH": "2025-12-18T09:02:29.976576", "MEAN_MOTION": 14.248255, "ECCENTRICITY": 0.00450963, "INCLINATION": 99.2192, "RA_OF_ASC_NODE": 202.3511, "ARG_OF_PERICENTER": 269.7915, "MEAN_ANOMALY": 89.8095, "EPHEMERIS_TYPE": 0, "CLASSIFICATION_TYPE": "U", "NORAD_CAT_ID": 31073, "ELEMENT_SET_NO": 999, "REV_AT_EPOCH": 97163, "BSTAR": 0.0009478953, "MEAN_MOTION_DOT": 2.186e-05, "MEAN_MOTION_DDOT": 0}, "tle": {"line1": "1 31073U 99025BFT 25352.37673584  .00002186  00000+0  94790-3 0  9997", "line2": "2 31073  99.2192 202.3511 0045096 269.7915  89.8095 14.24825500971631"}}, "geometry": {"type": "Point", "coordinates": [-159.13679474917248, 37.54337126508854]}}, {"type": "Feature", "properties": {"norad_id": 31074, "name": "FENGYUN 1C DEB", "group": "fengyun-1c-debris", "lat": -80.99406962464141, "lon": 8.310994591036883, "alt_km": 800.2583647214014, "timestamp": "2025-12-23T18:59:32.247570+00:00", "meta": {"OBJECT_NAME": "FENGYUN 1C DEB", "OBJECT_ID": "1999-025BFU", "EPOCH": "2025-12-18T17:10:14.920608", "MEAN_MOTION": 14.14282346, "ECCENTRICITY": 0.00866655, "INCLINATION": 98.9597, "RA_OF_ASC_NODE": 267.7307, "ARG_OF_PERICENTER": 248.9411, "MEAN_ANOMALY": 110.2477, "EPHEMERIS_TYPE": 0, "CLASSIFICATION_TYPE": "U", "NORAD_CAT_ID": 31074, "ELEMENT_SET_NO": 999, "REV_AT_EPOCH": 95664, "BSTAR": 0.001489856, "MEAN_MOTION_DOT": 2.905e-05, "MEAN_MOTION_DDOT": 0}, "tle": {"line1": "1 31074U 99025BFU 25352.71545047  .00002905  00000+0  14899-2 0  9998", "line2": "2 31074  98.9597 267.7307 0086665 248.9411 110.2477 14.14282346956643"}}, "geometry": {"type": "Point", "coordinates": [8.310994591036883, -80.99406962464141]}}, {"type": "Feature", "properties": {"norad_id": 31078, "name": "FENGYUN 1C DEB", "group": "fengyun-1c-debris", "lat": -11.726251470904856, "lon": -123.56615201674308, "alt_km": 799.307530502877, "timestamp": "2025-12-23T18:59:32.247579+00:00", "meta": {"OBJECT_NAME": "FENGYUN 1C DEB", "OBJECT_ID": "1999-025BFY", "EPOCH": "2025-12-15T10:54:33.357600", "MEAN_MOTION": 14.22084734, "ECCENTRICITY": 0.0117132, "INCLINATION": 98.8675, "RA_OF_ASC_NODE": 49.9086, "ARG_OF_PERICENTER": 141.0899, "MEAN_ANOMALY": 232.8229, "EPHEMERIS_TYPE": 0, "CLASSIFICATION_TYPE": "U", "NORAD_CAT_ID": 31078, "ELEMENT_SET_NO": 999, "REV_AT_EPOCH": 96931, "BSTAR": 0.00048192939, "MEAN_MOTION_DOT": 1.1e-05, "MEAN_MOTION_DDOT": 0}, "tle": {"line1": "1 31078U 99025BFY 25349.45455275  .00001100  00000+0  48193-3 0  9993", "line2": "2 31078  98.8675  49.9086 0117132 141.0899 232.8229 14.22084734969318"}}, "geometry": {"type": "Point", "coordinates": [-123.56615201674308, -11.726251470904856]}}, {"type": "Feature", "properties": {"norad_id": 31081, "name": "FENGYUN 1C DEB", "group": "fengyun-1c-debris", "lat": 56.21582370004017, "lon": 0.5419913374082722, "alt_km": 893.9985232744357, "timestamp": "2025-12-23T18:59:32.247589+00:00", "meta": {"OBJECT_NAME": "FENGYUN 1C DEB", "OBJECT_ID": "1999-025BGB", "EPOCH": "2025-12-22T19:40:19.801632", "MEAN_MOTION": 14.06298947, "ECCENTRICITY": 0.0047787, "INCLINATION": 98.7696, "RA_OF_ASC_NODE": 12.9403, "ARG_OF_PERICENTER": 202.3234, "MEAN_ANOMALY": 338.7856, "EPHEMERIS_TYPE": 0, "CLASSIFICATION_TYPE": "U", "NORAD_CAT_ID": 31081, "ELEMENT_SET_NO": 999, "REV_AT_EPOCH": 96602, "BSTAR": 3.6550429e-05, "MEAN_MOTION_DOT": 1.8e-07, "MEAN_MOTION_DDOT": 0}, "tle": {"line1": "1 31081U 99025BGB 25356.81967363  .00000018  00000+0  36550-4 0  9993", "line2": "2 31081  98.7696  12.9403 0047787 202.3234 338.7856 14.06298947966021"}}, "geometry": {"type": "Point", "coordinates": [0.5419913374082722, 56.21582370004017]}}, {"type": "Feature", "properties": {"norad_id": 31083, "name": "FENGYUN 1C DEB", "group": "fengyun-1c-debris", "lat": 12.669443570795442, "lon": -62.29066155770417, "alt_km": 692.3883724125672, "timestamp": "2025-12-23T18:59:32.247600+00:00", "meta": {"OBJECT_NAME": "FENGYUN 1C DEB", "OBJECT_ID": "1999-025BGD", "EPOCH": "2025-12-23T06:52:04.243008", "MEAN_MOTION": 14.6228417, "ECCENTRICITY": 0.00320972, "INCLINATION": 98.6463, "RA_OF_ASC_NODE": 115.2206, "ARG_OF_PERICENTER": 272.6957, "MEAN_ANOMALY": 116.8694, "EPHEMERIS_TYPE": 0, "CLASSIFICATION_TYPE": "U", "NORAD_CAT_ID": 31083, "ELEMENT_SET_NO": 999, "REV_AT_EPOCH": 97864, "BSTAR": 0.0028514155, "MEAN_MOTION_DOT": 0.00014467, "MEAN_MOTION_DDOT": 0}, "tle": {"line1": "1 31083U 99025BGD 25357.28616022  .00014467  00000+0  28514-2 0  9992", "line2": "2 31083  98.6463 115.2206 0032097 272.6957 116.8694 14.62284170978643"}}, "geometry": {"type": "Point", "coordinates": [-62.29066155770417, 12.669443570795442]}}, {"type": "Feature", "properties": {"norad_id": 31085, "name": "FENGYUN 1C DEB", "group": "fengyun-1c-debris", "lat": 71.08501064964274, "lon": 46.43214356455312, "alt_km": 815.1777752230273, "timestamp": "2025-12-23T18:59:32.247609+00:00", "meta": {"OBJECT_NAME": "FENGYUN 1C DEB", "OBJECT_ID": "1999-025BGF", "EPOCH": "2025-12-21T12:54:39.896064", "MEAN_MOTION": 14.30314033, "ECCENTRICITY": 0.00869239, "INCLINATION": 98.9838, "RA_OF_ASC_NODE": 196.612, "ARG_OF_PERICENTER": 352.5414, "MEAN_ANOMALY": 36.8573, "EPHEMERIS_TYPE": 0, "CLASSIFICATION_TYPE": "U", "NORAD_CAT_ID": 31085, "ELEMENT_SET_NO": 999, "REV_AT_EPOCH": 97842, "BSTAR": 8.750679e-05, "MEAN_MOTION_DOT": 1.89e-06, "MEAN_MOTION_DDOT": 0}, "tle": {"line1": "1 31085U 99025BGF 25355.53796176  .00000189  00000+0  87507-4 0  9994", "line2": "2 31085  98.9838 196.6120 0086923 352.5414  36.8573 14.30314033978425"}}, "geometry": {"type": "Point", "coordinates": [46.43214356455312, 71.08501064964274]}}, {"type": "Feature", "properties": {"norad_id": 31087, "name": "FENGYUN 1C DEB", "group": "fengyun-1c-debris", "lat": -2.3963907524904977, "lon": 18.303602332508614, "alt_km": 717.5228939426852, "timestamp": "2025-12-23T18:59:32.247619+00:00", "meta": {"OBJECT_NAME": "FENGYUN 1C DEB", "OBJECT_ID": "1999-025BGH", "EPOCH": "2025-12-22T12:29:21.539616", "MEAN_MOTION": 14.60394241, "ECCENTRICITY": 0.01716403, "INCLINATION": 98.1012, "RA_OF_ASC_NODE": 16.7188, "ARG_OF_PERICENTER": 260.0916, "MEAN_ANOMALY": 257.6721, "EPHEMERIS_TYPE": 0, "CLASSIFICATION_TYPE": "U", "NORAD_CAT_ID": 31087, "ELEMENT_SET_NO": 999, "REV_AT_EPOCH": 98912, "BSTAR": 0.00080101067, "MEAN_MOTION_DOT": 4.718e-05, "MEAN_MOTION_DDOT": 0}, "tle": {"line1": "1 31087U 99025BGH 25356.52038819  .00004718  00000+0  80101-3 0  9993", "line2": "2 31087  98.1012  16.7188 0171640 260.0916 257.6721 14.60394241989129"}}, "geometry": {"type": "Point", "coordinates": [18.303602332508614, -2.3963907524904977]}}, {"type": "Feature", "properties": {"norad_id": 31088, "name": "FENGYUN 1C DEB", "group": "fengyun-1c-debris", "lat": 79.31843122708916, "lon": -2.7256198561670772, "alt_km": 777.0111178817133, "timestamp": "2025-12-23T18:59:32.247634+00:00", "meta": {"OBJECT_NAME": "FENGYUN 1C DEB", "OBJECT_ID": "1999-025BGJ", "EPOCH": "2025-12-20T03:21:12.353184", "MEAN_MOTION": 14.28750906, "ECCENTRICITY": 0.00280606, "INCLINATION": 99.4114, "RA_OF_ASC_NODE": 54.9006, "ARG_OF_PERICENTER": 39.8245, "MEAN_ANOMALY": 353.0532, "EPHEMERIS_TYPE": 0, "CLASSIFICATION_TYPE": "U", "NORAD_CAT_ID": 31088, "ELEMENT_SET_NO": 999, "REV_AT_EPOCH": 96655, "BSTAR": 0.0010684621, "MEAN_MOTION_DOT": 2.651e-05, "MEAN_MOTION_DDOT": 0}, "tle": {"line1": "1 31088U 99025BGJ 25354.13972631  .00002651  00000+0  10685-2 0  9991", "line2": "2 31088  99.4114  54.9006 0028060  39.8245 353.0532 14.28750906966555"}}, "geometry": {"type": "Point", "coordinates": [-2.7256198561670772, 79.31843122708916]}}, {"type": "Feature", "properties": {"norad_id": 31089, "name": "FENGYUN 1C DEB", "group": "fengyun-1c-debris", "lat": 13.271792648124219, "lon": 137.27851795747958, "alt_km": 1082.9400707252726, "timestamp": "2025-12-23T18:59:32.247643+00:00", "meta": {"OBJECT_NAME": "FENGYUN 1C DEB", "OBJECT_ID": "1999-025BGK", "EPOCH": "2025-12-23T04:12:56.469312", "MEAN_MOTION": 13.88345862, "ECCENTRICITY": 0.02063025, "INCLINATION": 98.9493, "RA_OF_ASC_NODE": 138.8175, "ARG_OF_PERICENTER": 183.341, "MEAN_ANOMALY": 355.1152, "EPHEMERIS_TYPE": 0, "CLASSIFICATION_TYPE": "U", "NORAD_CAT_ID": 31089, "ELEMENT_SET_NO": 999, "REV_AT_EPOCH": 68204, "BSTAR": 0.00070466509, "MEAN_MOTION_DOT": 9.58e-06, "MEAN_MOTION_DDOT": 0}, "tle": {"line1": "1 31089U 99025BGK 25357.17565358  .00000958  00000+0  70467-3 0  9996", "line2": "2 31089  98.9493 138.8175 0206302 183.3410 355.1152 13.88345862682041"}}, "geometry": {"type": "Point", "coordinates": [137.27851795747958, 13.271792648124219]}}, {"type": "Feature", "properties": {"norad_id": 31090, "name": "FENGYUN 1C DEB", "group": "fengyun-1c-debris", "lat": 61.758743018264326, "lon": -58.664164445215306, "alt_km": 422.06453297987355, "timestamp": "2025-12-23T18:59:32.247652+00:00", "meta": {"OBJECT_NAME": "FENGYUN 1C DEB", "OBJECT_ID": "1999-025BGL", "EPOCH": "2025-12-21T13:16:32.539296", "MEAN_MOTION": 15.34304432, "ECCENTRICITY": 0.0054242, "INCLINATION": 98.984, "RA_OF_ASC_NODE": 101.4841, "ARG_OF_PERICENTER": 102.0738, "MEAN_ANOMALY": 258.6586, "EPHEMERIS_TYPE": 0, "CLASSIFICATION_TYPE": "U", "NORAD_CAT_ID": 31090, "ELEMENT_SET_NO": 999, "REV_AT_EPOCH": 973, "BSTAR": 0.0014098, "MEAN_MOTION_DOT": 0.00049266, "MEAN_MOTION_DDOT": 0}, "tle": {"line1": "1 31090U 99025BGL 25355.55315439  .00049266  00000+0  14098-2 0  9993", "line2": "2 31090  98.9840 101.4841 0054242 102.0738 258.6586 15.34304432  9738"}}, "geometry": {"type": "Point", "coordinates": [-58.664164445215306, 61.758743018264326]}}]}